CTC1_L_00603007-03
1 87350U 26891EU  26070.40840278  .00000000  00000+0  00000-0 0  9996
2 87350  50.0000 180.0000 0000000   0.0000 144.0000  5.31014043    10
CTC1_L_00603007-04
1 87351U 26584VV  26070.40840278  .00000000  00000+0  00000-0 0  9996
2 87351  50.0000 180.0000 0000000   0.0000 180.0000  5.31014043    11
CTC1_L_00603007-05
1 87352U 24652YP  26070.40840278  .00000000  00000+0  00000-0 0  9991
2 87352  50.0000 180.0000 0000000   0.0000 216.0000  5.31014043    12
CTC1_L_00603007-06
1 87353U 23045HN  26070.40840278  .00000000  00000+0  00000-0 0  9997
2 87353  50.0000 180.0000 0000000   0.0000 252.0000  5.31014043    13
CTC1_L_00603007-07
1 87354U 23241GK  26070.40840278  .00000000  00000+0  00000-0 0  9996
2 87354  50.0000 180.0000 0000000   0.0000 288.0000  5.31014043    13
CTC1_L_00603007-08
1 87355U 25347BD  26070.40840278  .00000000  00000+0  00000-0 0  9996
2 87355  50.0000 180.0000 0000000   0.0000 324.0000  5.31014043    15
CTC1_L_00603007-09
1 87356U 23411CV  26070.40840278  .00000000  00000+0  00000-0 0  9997
2 87356  50.0000 180.0000 0000000   0.0000   0.0000  5.31014043    17
CTC1_L_00603007-10
1 87357U 24400KH  26070.40840278  .00000000  00000+0  00000-0 0  9997
2 87357  50.0000 180.0000 0000000   0.0000  36.0000  5.31014043    17
CTC1_L_00603008-01
1 87358U 23687GV  26070.40840278  .00000000  00000+0  00000-0 0  9994
2 87358  50.0000 210.0000 0000000   0.0000  84.0000  5.31014043    15
CTC1_L_00603008-02
1 87359U 24334YJ  26070.40840278  .00000000  00000+0  00000-0 0  9995
2 87359  50.0000 210.0000 0000000   0.0000 120.0000  5.31014043    17
CTC1_L_00603008-03
1 87360U 26172BU  26070.40840278  .00000000  00000+0  00000-0 0  9999
2 87360  50.0000 210.0000 0000000   0.0000 156.0000  5.31014043    18
CTC1_L_00603008-04
1 87361U 26618DG  26070.40840278  .00000000  00000+0  00000-0 0  9995
2 87361  50.0000 210.0000 0000000   0.0000 192.0000  5.31014043    19
CTC1_L_00603008-05
1 87362U 22750JC  26070.40840278  .00000000  00000+0  00000-0 0  9999
2 87362  50.0000 210.0000 0000000   0.0000 228.0000  5.31014043    10
CTC1_L_00603008-06
1 87363U 23925GY  26070.40840278  .00000000  00000+0  00000-0 0  9995
2 87363  50.0000 210.0000 0000000   0.0000 264.0000  5.31014043    11
CTC1_L_00603008-07
1 87364U 24448HN  26070.40840278  .00000000  00000+0  00000-0 0  9997
2 87364  50.0000 210.0000 0000000   0.0000 300.0000  5.31014043    13
CTC1_L_00603008-08
1 87365U 23771PD  26070.40840278  .00000000  00000+0  00000-0 0  9996
2 87365  50.0000 210.0000 0000000   0.0000 336.0000  5.31014043    13
CTC1_L_00603008-09
1 87366U 22479QG  26070.40840278  .00000000  00000+0  00000-0 0  9991
2 87366  50.0000 210.0000 0000000   0.0000  12.0000  5.31014043    15
CTC1_L_00603008-10
1 87367U 24354VQ  26070.40840278  .00000000  00000+0  00000-0 0  9996
2 87367  50.0000 210.0000 0000000   0.0000  48.0000  5.31014043    15
CTC1_L_00603009-01
1 87368U 25185SE  26070.40840278  .00000000  00000+0  00000-0 0  9990
2 87368  50.0000 240.0000 0000000   0.0000  96.0000  5.31014043    12
CTC1_L_00603009-02
1 87369U 23611BG  26070.40840278  .00000000  00000+0  00000-0 0  9993
2 87369  50.0000 240.0000 0000000   0.0000 132.0000  5.31014043    14
CTC1_L_00603009-03
1 87370U 25014XZ  26070.40840278  .00000000  00000+0  00000-0 0  9994
2 87370  50.0000 240.0000 0000000   0.0000 168.0000  5.31014043    15
CTC1_L_00603009-04
1 87371U 22164RG  26070.40840278  .00000000  00000+0  00000-0 0  9998
2 87371  50.0000 240.0000 0000000   0.0000 204.0000  5.31014043    17
CTC1_L_00603009-05
1 87372U 26799CE  26070.40840278  .00000000  00000+0  00000-0 0  9997
2 87372  50.0000 240.0000 0000000   0.0000 240.0000  5.31014043    18
CTC1_L_00603009-06
1 87373U 26378NZ  26070.40840278  .00000000  00000+0  00000-0 0  9991
2 87373  50.0000 240.0000 0000000   0.0000 276.0000  5.31014043    18
CTC1_L_00603009-07
1 87374U 25102KT  26070.40840278  .00000000  00000+0  00000-0 0  9996
2 87374  50.0000 240.0000 0000000   0.0000 312.0000  5.31014043    10
CTC1_L_00603009-08
1 87375U 26324RN  26070.40840278  .00000000  00000+0  00000-0 0  9994
2 87375  50.0000 240.0000 0000000   0.0000 348.0000  5.31014043    10
CTC1_L_00603009-09
1 87376U 23497PV  26070.40840278  .00000000  00000+0  00000-0 0  9993
2 87376  50.0000 240.0000 0000000   0.0000  24.0000  5.31014043    12
CTC1_L_00603009-10
1 87377U 23317CX  26070.40840278  .00000000  00000+0  00000-0 0  9995
2 87377  50.0000 240.0000 0000000   0.0000  60.0000  5.31014043    13
CTC1_L_00603010-01
1 87378U 22213JK  26070.40840278  .00000000  00000+0  00000-0 0  9990
2 87378  50.0000 270.0000 0000000   0.0000 108.0000  5.31014043    10
CTC1_L_00603010-02
1 87379U 23201QD  26070.40840278  .00000000  00000+0  00000-0 0  9999
2 87379  50.0000 270.0000 0000000   0.0000 144.0000  5.31014043    11
CTC1_L_00603010-03
1 87380U 22219VS  26070.40840278  .00000000  00000+0  00000-0 0  9999
2 87380  50.0000 270.0000 0000000   0.0000 180.0000  5.31014043    13
CTC1_L_00603010-04
1 87381U 25774EZ  26070.40840278  .00000000  00000+0  00000-0 0  9999
2 87381  50.0000 270.0000 0000000   0.0000 216.0000  5.31014043    14
CTC1_L_00603010-05
1 87382U 25028MA  26070.40840278  .00000000  00000+0  00000-0 0  9992
2 87382  50.0000 270.0000 0000000   0.0000 252.0000  5.31014043    15
CTC1_L_00603010-06
1 87383U 24570AS  26070.40840278  .00000000  00000+0  00000-0 0  9994
2 87383  50.0000 270.0000 0000000   0.0000 288.0000  5.31014043    15
CTC1_L_00603010-07
1 87384U 24439EX  26070.40840278  .00000000  00000+0  00000-0 0  9999
2 87384  50.0000 270.0000 0000000   0.0000 324.0000  5.31014043    17
CTC1_L_00603010-08
1 87385U 25699DW  26070.40840278  .00000000  00000+0  00000-0 0  9999
2 87385  50.0000 270.0000 0000000   0.0000   0.0000  5.31014043    19
CTC1_L_00603010-09
1 87386U 23074DI  26070.40840278  .00000000  00000+0  00000-0 0  9995
2 87386  50.0000 270.0000 0000000   0.0000  36.0000  5.31014043    19
CTC1_L_00603010-10
1 87387U 26042BN  26070.40840278  .00000000  00000+0  00000-0 0  9994
2 87387  50.0000 270.0000 0000000   0.0000  72.0000  5.31014043    10
CTC1_L_00603011-01
1 87388U 26314QY  26070.40840278  .00000000  00000+0  00000-0 0  9997
2 87388  50.0000 300.0000 0000000   0.0000 120.0000  5.31014043    19
CTC1_L_00603011-02
1 87389U 23467DH  26070.40840278  .00000000  00000+0  00000-0 0  9994
2 87389  50.0000 300.0000 0000000   0.0000 156.0000  5.31014043    19
CTC1_L_00603011-03
1 87390U 24037TU  26070.40840278  .00000000  00000+0  00000-0 0  9990
2 87390  50.0000 300.0000 0000000   0.0000 192.0000  5.31014043    11
CTC1_L_00603011-04
1 87391U 24902N   26070.40840278  .00000000  00000+0  00000-0 0  9992
2 87391  50.0000 300.0000 0000000   0.0000 228.0000  5.31014043    12
CTC1_L_00603011-05
1 87392U 25392IO  26070.40840278  .00000000  00000+0  00000-0 0  9997
2 87392  50.0000 300.0000 0000000   0.0000 264.0000  5.31014043    13
CTC1_L_00603011-06
1 87393U 23819GH  26070.40840278  .00000000  00000+0  00000-0 0  9990
2 87393  50.0000 300.0000 0000000   0.0000 300.0000  5.31014043    15
CTC1_L_00603011-07
1 87394U 26749XB  26070.40840278  .00000000  00000+0  00000-0 0  9996
2 87394  50.0000 300.0000 0000000   0.0000 336.0000  5.31014043    15
CTC1_L_00603011-08
1 87395U 24861BG  26070.40840278  .00000000  00000+0  00000-0 0  9990
2 87395  50.0000 300.0000 0000000   0.0000  12.0000  5.31014043    17
CTC1_L_00603011-09
1 87396U 22742NE  26070.40840278  .00000000  00000+0  00000-0 0  9997
2 87396  50.0000 300.0000 0000000   0.0000  48.0000  5.31014043    17
CTC1_L_00603011-10
1 87397U 26069FW  26070.40840278  .00000000  00000+0  00000-0 0  9994
2 87397  50.0000 300.0000 0000000   0.0000  84.0000  5.31014043    18
CTC1_L_00603012-01
1 87398U 22012DN  26070.40840278  .00000000  00000+0  00000-0 0  9999
2 87398  50.0000 330.0000 0000000   0.0000 132.0000  5.31014043    16
CTC1_L_00603012-02
1 87399U 23208BB  26070.40840278  .00000000  00000+0  00000-0 0  9998
2 87399  50.0000 330.0000 0000000   0.0000 168.0000  5.31014043    16
CTC1_L_00603012-03
1 87400U 22861HM  26070.40840278  .00000000  00000+0  00000-0 0  9995
2 87400  50.0000 330.0000 0000000   0.0000 204.0000  5.31014043    10
CTC1_L_00603012-04
1 87401U 23732HC  26070.40840278  .00000000  00000+0  00000-0 0  9994
2 87401  50.0000 330.0000 0000000   0.0000 240.0000  5.31014043    11
CTC1_L_00603012-05
1 87402U 24140DL  26070.40840278  .00000000  00000+0  00000-0 0  9999
2 87402  50.0000 330.0000 0000000   0.0000 276.0000  5.31014043    11
CTC1_L_00603012-06
1 87403U 25873NV  26070.40840278  .00000000  00000+0  00000-0 0  9994
2 87403  50.0000 330.0000 0000000   0.0000 312.0000  5.31014043    13
CTC1_L_00603012-07
1 87404U 23263PA  26070.40840278  .00000000  00000+0  00000-0 0  9996
2 87404  50.0000 330.0000 0000000   0.0000 348.0000  5.31014043    13
CTC1_L_00603012-08
1 87405U 25684BB  26070.40840278  .00000000  00000+0  00000-0 0  9996
2 87405  50.0000 330.0000 0000000   0.0000  24.0000  5.31014043    15
CTC1_L_00603012-09
1 87406U 24071SJ  26070.40840278  .00000000  00000+0  00000-0 0  9996
2 87406  50.0000 330.0000 0000000   0.0000  60.0000  5.31014043    16
CTC1_L_00603012-10
1 87407U 26216IS  26070.40840278  .00000000  00000+0  00000-0 0  9990
2 87407  50.0000 330.0000 0000000   0.0000  96.0000  5.31014043    16
